QIANFAN-103             
1 66045U 25233N   26063.60598310  .00000029  00000+0  25811-4 0  9996
2 66045  88.9934  53.7640 0001891  91.5029 268.6339 13.51006104 19068
QIANFAN-104             
1 66046U 25233P   26063.53582294  .00000033  00000+0  32239-4 0  9990
2 66046  88.9939  53.6685 0002081  86.0305 274.1084 13.51010177 19109
QIANFAN-105             
1 66047U 25233Q   26063.54396790  .00000022  00000+0  15992-4 0  9991
2 66047  88.9952  53.4968 0002019  92.6009 267.5374 13.50981408 19215
QIANFAN-106             
1 66048U 25233R   26063.54010127  .00000035  00000+0  35418-4 0  9998
2 66048  88.9921  53.7430 0002384  86.5174 273.6249 13.51005153 19066
QIANFAN-107             
1 66049U 25233S   26063.54835892  .00000041  00000+0  45374-4 0  9992
2 66049  88.9937  53.7580 0001915  90.6153 269.5217 13.51003194 19064
QIANFAN-108             
1 66050U 25233T   26063.55246457  .00000045  00000+0  50454-4 0  9997
2 66050  88.9930  53.7527 0002335  86.1014 274.0404 13.51004711 19068
