[{"OBJECT_NAME":"QIANFAN-103","OBJECT_ID":"2025-233N","EPOCH":"2026-03-04T14:32:36.939840","MEAN_MOTION":13.51006104,"ECCENTRICITY":0.0001891,"INCLINATION":88.9934,"RA_OF_ASC_NODE":53.764,"ARG_OF_PERICENTER":91.5029,"MEAN_ANOMALY":268.6339,"EPHEMERIS_TYPE":0,"CLASSIFICATION_TYPE":"U","NORAD_CAT_ID":66045,"ELEMENT_SET_NO":999,"REV_AT_EPOCH":1906,"BSTAR":2.5811274e-5,"MEAN_MOTION_DOT":2.9e-7,"MEAN_MOTION_DDOT":0},{"OBJECT_NAME":"QIANFAN-104","OBJECT_ID":"2025-233P","EPOCH":"2026-03-04T12:51:35.102016","MEAN_MOTION":13.51010177,"ECCENTRICITY":0.00020818,"INCLINATION":88.9939,"RA_OF_ASC_NODE":53.6685,"ARG_OF_PERICENTER":86.0305,"MEAN_ANOMALY":274.1084,"EPHEMERIS_TYPE":0,"CLASSIFICATION_TYPE":"U","NORAD_CAT_ID":66046,"ELEMENT_SET_NO":999,"REV_AT_EPOCH":1910,"BSTAR":3.2239484e-5,"MEAN_MOTION_DOT":3.3e-7,"MEAN_MOTION_DDOT":0},{"OBJECT_NAME":"QIANFAN-105","OBJECT_ID":"2025-233Q","EPOCH":"2026-03-04T13:03:18.826560","MEAN_MOTION":13.50981408,"ECCENTRICITY":0.00020192,"INCLINATION":88.9952,"RA_OF_ASC_NODE":53.4968,"ARG_OF_PERICENTER":92.6009,"MEAN_ANOMALY":267.5374,"EPHEMERIS_TYPE":0,"CLASSIFICATION_TYPE":"U","NORAD_CAT_ID":66047,"ELEMENT_SET_NO":999,"REV_AT_EPOCH":1921,"BSTAR":1.5991591e-5,"MEAN_MOTION_DOT":2.2e-7,"MEAN_MOTION_DDOT":0},{"OBJECT_NAME":"QIANFAN-106","OBJECT_ID":"2025-233R","EPOCH":"2026-03-04T12:57:44.749728","MEAN_MOTION":13.51005153,"ECCENTRICITY":0.00023847,"INCLINATION":88.9921,"RA_OF_ASC_NODE":53.743,"ARG_OF_PERICENTER":86.5174,"MEAN_ANOMALY":273.6249,"EPHEMERIS_TYPE":0,"CLASSIFICATION_TYPE":"U","NORAD_CAT_ID":66048,"ELEMENT_SET_NO":999,"REV_AT_EPOCH":1906,"BSTAR":3.5417719e-5,"MEAN_MOTION_DOT":3.5e-7,"MEAN_MOTION_DDOT":0},{"OBJECT_NAME":"QIANFAN-107","OBJECT_ID":"2025-233S","EPOCH":"2026-03-04T13:09:38.210688","MEAN_MOTION":13.51003194,"ECCENTRICITY":0.00019155,"INCLINATION":88.9937,"RA_OF_ASC_NODE":53.758,"ARG_OF_PERICENTER":90.6153,"MEAN_ANOMALY":269.5217,"EPHEMERIS_TYPE":0,"CLASSIFICATION_TYPE":"U","NORAD_CAT_ID":66049,"ELEMENT_SET_NO":999,"REV_AT_EPOCH":1906,"BSTAR":4.5374333e-5,"MEAN_MOTION_DOT":4.1e-7,"MEAN_MOTION_DDOT":0},{"OBJECT_NAME":"QIANFAN-108","OBJECT_ID":"2025-233T","EPOCH":"2026-03-04T13:15:32.938848","MEAN_MOTION":13.51004711,"ECCENTRICITY":0.00023354,"INCLINATION":88.993,"RA_OF_ASC_NODE":53.7527,"ARG_OF_PERICENTER":86.1014,"MEAN_ANOMALY":274.0404,"EPHEMERIS_TYPE":0,"CLASSIFICATION_TYPE":"U","NORAD_CAT_ID":66050,"ELEMENT_SET_NO":999,"REV_AT_EPOCH":1906,"BSTAR":5.0454468e-5,"MEAN_MOTION_DOT":4.5e-7,"MEAN_MOTION_DDOT":0}]
